0 IRIDIUM 33 DEB
1 35921U 97051UE  24016.91800027  .00031856  00000-0  77628-2 0  9997
2 35921  86.4044  84.7910 0092191  88.6571 272.5193 14.49974375552255
0 IRIDIUM 33 DEB
1 35929U 97051UN  24017.97012534  .00013096  00000-0  23653-2 0  9995
2 35929  86.3459 270.8813 0024880 317.4650  42.4635 14.66158818774899
0 IRIDIUM 33 DEB
1 36011U 97051US  24013.16586897  .00003413  00000-0  11398-2 0  9998
2 36011  86.3437 334.7594 0019758  12.9690  45.5094 14.37140890544777
0 IRIDIUM 33 DEB
1 36028U 97051VK  24014.99816394  .00013612  00000-0  25446-2 0  9997
2 36028  86.3295 265.6676 0028324 337.2086  22.7866 14.64559311768146
0 IRIDIUM 33 DEB
1 36080U 97051VM  24019.53672745  .00004405  00000-0  13639-2 0  9991
2 36080  86.3229 308.5040 0016574 305.5115  54.4537 14.40971265374115
0 IRIDIUM 33 DEB
1 36083U 97051VQ  24015.15730830  .00004796  00000-0  15623-2 0  9996
2 36083  86.3442 333.1714 0029456  12.2489 347.9418 14.38305531754042
0 IRIDIUM 33 DEB
1 36390U 97051VU  23360.47750349  .00007351  00000-0  15889-2 0  9995
2 36390  86.2919 263.4119 0045278 108.2331 252.3813 14.57539489778267
0 IRIDIUM 33 DEB
1 36485U 97051WB  24019.11589575  .00046242  00000-0  89201-2 0  9995
2 36485  86.4227  78.4783 0087301 294.2235  64.9871 14.60812252565091
0 IRIDIUM 33 DEB
1 36487U 97051WD  24019.95350719  .00020507  00000-0  68897-2 0  9999
2 36487  86.3490  91.8593 0115264  14.7485 345.7024 14.33356379595719
0 IRIDIUM 33 DEB
1 37136U 97051XG  24014.00695948  .00003000  00000-0  12704-2 0  9993
2 37136  86.1742 283.3048 0084579  70.1049 290.9229 14.23244035758597
0 IRIDIUM 33 DEB
1 37548U 97051XH  24017.63401447  .00008876  00000-0  27422-2 0  9990
2 37548  86.3590 343.2408 0027436 352.0011   8.0747 14.41012246554845
0 IRIDIUM 33 DEB
1 37550U 97051XK  24006.19365905  .00005139  00000-0  12729-2 0  9993
2 37550  86.3881 332.9293 0003723  48.8555 311.2971 14.51805860760271
0 IRIDIUM 33 DEB
1 37558U 97051XT  24018.17359888  .00034673  00000-0  50095-2 0  9998
2 37558  86.3952 339.5756 0048000 114.8772 245.7448 14.75242333514461
0 IRIDIUM 33 DEB
1 37562U 97051XX  24019.21870552  .00007644  00000-0  21614-2 0  9998
2 37562  86.3816 343.1453 0025233 272.6637 151.9154 14.45342682762716
0 IRIDIUM 33 DEB
1 37565U 97051YA  24011.10075244  .00003599  00000-0  10111-2 0  9991
2 37565  86.3497 313.6816 0010390 260.9793  99.0233 14.45694523556782
0 IRIDIUM 33 DEB
1 38017U 97051YD  24020.67510600  .00007077  00000-0  29754-2 0  9994
2 38017  86.3341  99.6769 0175993 190.9951 168.7370 14.17704717514922
0 IRIDIUM 33 DEB
1 38022U 97051YJ  24020.10792676  .00004821  00000-0  17091-2 0  9998
2 38022  86.2804 317.5207 0053926 153.2031 207.1969 14.33516789592423
0 IRIDIUM 33 DEB
1 38028U 97051YQ  24019.52376508  .00003137  00000-0  93768-3 0  9995
2 38028  86.3367 300.5824 0026523 266.0453  93.7716 14.42481319731182
0 IRIDIUM 33 DEB
1 38225U 97051YZ  23364.57957472  .00020512  00000-0  75565-2 0  9996
2 38225  86.3141 104.7063 0163755 239.0474 182.0482 14.25281865521850
